{
  "type": "FeatureCollection",
  "features": [
    {
      "type": "Feature",
      "properties": {
        "norad_id": 34003,
        "name": "COSMOS 2251 DEB",
        "group": "cosmos-2251-debris",
        "lat": -36.170493753151796,
        "lon": -98.06878386948166,
        "alt_km": 856.8547592102441,
        "timestamp": "2025-12-19T08:58:49.730396+00:00",
        "meta_object_name": "COSMOS 2251 DEB",
        "meta_object_id": "1993-036GN",
        "meta_epoch": "2025-12-18T21:00:51.472800",
        "meta_mean_motion": 13.84184634,
        "meta_eccentricity": 0.02748454,
        "meta_inclination": 74.0781,
        "meta_ra_of_asc_node": 274.8157,
        "meta_arg_of_pericenter": 25.4118,
        "meta_mean_anomaly": 336.0231,
        "meta_ephemeris_type": 0,
        "meta_classification_type": "U",
        "meta_norad_cat_id": 34003,
        "meta_element_set_no": 999,
        "meta_rev_at_epoch": 84510,
        "meta_bstar": 0.0015140525,
        "meta_mean_motion_dot": 2.24e-05,
        "meta_mean_motion_ddot": 0,
        "tle_line1": "1 34003U 93036GN  25352.87559575  .00002240  00000+0  15141-2 0  9990",
        "tle_line2": "2 34003  74.0781 274.8157 0274845  25.4118 336.0231 13.84184634845102"
      },
      "geometry": {
        "type": "Point",
        "coordinates": [
          -98.06878386948166,
          -36.170493753151796
        ]
      }
    },
    {
      "type": "Feature",
      "properties": {
        "norad_id": 34004,
        "name": "COSMOS 2251 DEB",
        "group": "cosmos-2251-debris",
        "lat": 66.06446524173306,
        "lon": -19.172050712331092,
        "alt_km": 733.6997617827938,
        "timestamp": "2025-12-19T08:58:49.730406+00:00",
        "meta_object_name": "COSMOS 2251 DEB",
        "meta_object_id": "1993-036GP",
        "meta_epoch": "2025-12-18T22:42:30.702816",
        "meta_mean_motion": 14.49064219,
        "meta_eccentricity": 0.00334399,
        "meta_inclination": 74.0353,
        "meta_ra_of_asc_node": 301.4708,
        "meta_arg_of_pericenter": 312.9506,
        "meta_mean_anomaly": 46.885,
        "meta_ephemeris_type": 0,
        "meta_classification_type": "U",
        "meta_norad_cat_id": 34004,
        "meta_element_set_no": 999,
        "meta_rev_at_epoch": 88120,
        "meta_bstar": 0.00092131357,
        "meta_mean_motion_dot": 3.497e-05,
        "meta_mean_motion_ddot": 0,
        "tle_line1": "1 34004U 93036GP  25352.94618869  .00003497  00000+0  92131-3 0  9991",
        "tle_line2": "2 34004  74.0353 301.4708 0033439 312.9506  46.8850 14.49064219881206"
      },
      "geometry": {
        "type": "Point",
        "coordinates": [
          -19.172050712331092,
          66.06446524173306
        ]
      }
    },
    {
      "type": "Feature",
      "properties": {
        "norad_id": 34005,
        "name": "COSMOS 2251 DEB",
        "group": "cosmos-2251-debris",
        "lat": 41.01541619241577,
        "lon": 6.980990365640257,
        "alt_km": 768.8781378052017,
        "timestamp": "2025-12-19T08:58:49.730416+00:00",
        "meta_object_name": "COSMOS 2251 DEB",
        "meta_object_id": "1993-036GQ",
        "meta_epoch": "2025-12-18T22:52:10.087392",
        "meta_mean_motion": 14.40308674,
        "meta_eccentricity": 0.00210533,
        "meta_inclination": 74.0438,
        "meta_ra_of_asc_node": 202.1681,
        "meta_arg_of_pericenter": 319.3228,
        "meta_mean_anomaly": 153.981,
        "meta_ephemeris_type": 0,
        "meta_classification_type": "U",
        "meta_norad_cat_id": 34005,
        "meta_element_set_no": 999,
        "meta_rev_at_epoch": 88468,
        "meta_bstar": 8.7805862e-05,
        "meta_mean_motion_dot": 2.52e-06,
        "meta_mean_motion_ddot": 0,
        "tle_line1": "1 34005U 93036GQ  25352.95289453  .00000252  00000+0  87806-4 0  9996",
        "tle_line2": "2 34005  74.0438 202.1681 0021053 319.3228 153.9810 14.40308674884687"
      },
      "geometry": {
        "type": "Point",
        "coordinates": [
          6.980990365640257,
          41.01541619241577
        ]
      }
    },
    {
      "type": "Feature",
      "properties": {
        "norad_id": 34006,
        "name": "COSMOS 2251 DEB",
        "group": "cosmos-2251-debris",
        "lat": -73.73544912079123,
        "lon": 28.479136856501167,
        "alt_km": 596.2927056301496,
        "timestamp": "2025-12-19T08:58:49.730426+00:00",
        "meta_object_name": "COSMOS 2251 DEB",
        "meta_object_id": "1993-036GR",
        "meta_epoch": "2025-12-18T03:40:23.640096",
        "meta_mean_motion": 14.95111084,
        "meta_eccentricity": 0.00113796,
        "meta_inclination": 74.0524,
        "meta_ra_of_asc_node": 132.3805,
        "meta_arg_of_pericenter": 71.3364,
        "meta_mean_anomaly": 105.5146,
        "meta_ephemeris_type": 0,
        "meta_classification_type": "U",
        "meta_norad_cat_id": 34006,
        "meta_element_set_no": 999,
        "meta_rev_at_epoch": 88749,
        "meta_bstar": 0.0025744949,
        "meta_mean_motion_dot": 0.00028351,
        "meta_mean_motion_ddot": 0,
        "tle_line1": "1 34006U 93036GR  25352.15305139  .00028351  00000+0  25745-2 0  9991",
        "tle_line2": "2 34006  74.0524 132.3805 0011379  71.3364 105.5146 14.95111084887496"
      },
      "geometry": {
        "type": "Point",
        "coordinates": [
          28.479136856501167,
          -73.73544912079123
        ]
      }
    },
    {
      "type": "Feature",
      "properties": {
        "norad_id": 34007,
        "name": "COSMOS 2251 DEB",
        "group": "cosmos-2251-debris",
        "lat": -23.917199537983226,
        "lon": 161.42731047311298,
        "alt_km": 686.9193770727106,
        "timestamp": "2025-12-19T08:58:49.730436+00:00",
        "meta_object_name": "COSMOS 2251 DEB",
        "meta_object_id": "1993-036GS",
        "meta_epoch": "2025-12-18T09:06:19.974240",
        "meta_mean_motion": 14.64824644,
        "meta_eccentricity": 0.00442321,
        "meta_inclination": 74.0187,
        "meta_ra_of_asc_node": 336.0395,
        "meta_arg_of_pericenter": 109.1353,
        "meta_mean_anomaly": 251.4611,
        "meta_ephemeris_type": 0,
        "meta_classification_type": "U",
        "meta_norad_cat_id": 34007,
        "meta_element_set_no": 999,
        "meta_rev_at_epoch": 89162,
        "meta_bstar": 0.00054099577,
        "meta_mean_motion_dot": 2.899e-05,
        "meta_mean_motion_ddot": 0,
        "tle_line1": "1 34007U 93036GS  25352.37939785  .00002899  00000+0  54100-3 0  9993",
        "tle_line2": "2 34007  74.0187 336.0395 0044232 109.1353 251.4611 14.64824644891628"
      },
      "geometry": {
        "type": "Point",
        "coordinates": [
          161.42731047311298,
          -23.917199537983226
        ]
      }
    },
    {
      "type": "Feature",
      "properties": {
        "norad_id": 34008,
        "name": "COSMOS 2251 DEB",
        "group": "cosmos-2251-debris",
        "lat": -49.87964454739531,
        "lon": 158.2534462499043,
        "alt_km": 784.6383931574719,
        "timestamp": "2025-12-19T08:58:49.730446+00:00",
        "meta_object_name": "COSMOS 2251 DEB",
        "meta_object_id": "1993-036GT",
        "meta_epoch": "2025-12-18T21:56:31.326144",
        "meta_mean_motion": 14.33150405,
        "meta_eccentricity": 0.00245236,
        "meta_inclination": 74.0344,
        "meta_ra_of_asc_node": 319.2336,
        "meta_arg_of_pericenter": 313.4904,
        "meta_mean_anomaly": 67.3935,
        "meta_ephemeris_type": 0,
        "meta_classification_type": "U",
        "meta_norad_cat_id": 34008,
        "meta_element_set_no": 999,
        "meta_rev_at_epoch": 88053,
        "meta_bstar": 9.2544385e-05,
        "meta_mean_motion_dot": 2.29e-06,
        "meta_mean_motion_ddot": 0,
        "tle_line1": "1 34008U 93036GT  25352.91425146  .00000229  00000+0  92544-4 0  9995",
        "tle_line2": "2 34008  74.0344 319.2336 0024523 313.4904  67.3935 14.33150405880539"
      },
      "geometry": {
        "type": "Point",
        "coordinates": [
          158.2534462499043,
          -49.87964454739531
        ]
      }
    },
    {
      "type": "Feature",
      "properties": {
        "norad_id": 34009,
        "name": "COSMOS 2251 DEB",
        "group": "cosmos-2251-debris",
        "lat": -74.02254926715241,
        "lon": -123.71935029102683,
        "alt_km": 798.0587686819645,
        "timestamp": "2025-12-19T08:58:49.730456+00:00",
        "meta_object_name": "COSMOS 2251 DEB",
        "meta_object_id": "1993-036GU",
        "meta_epoch": "2025-12-18T23:36:23.423616",
        "meta_mean_motion": 14.33227104,
        "meta_eccentricity": 0.00267486,
        "meta_inclination": 74.0373,
        "meta_ra_of_asc_node": 325.5255,
        "meta_arg_of_pericenter": 33.2784,
        "meta_mean_anomaly": 22.9399,
        "meta_ephemeris_type": 0,
        "meta_classification_type": "U",
        "meta_norad_cat_id": 34009,
        "meta_element_set_no": 999,
        "meta_rev_at_epoch": 88035,
        "meta_bstar": 0.00011639217,
        "meta_mean_motion_dot": 2.95e-06,
        "meta_mean_motion_ddot": 0,
        "tle_line1": "1 34009U 93036GU  25352.98360444  .00000295  00000+0  11639-3 0  9990",
        "tle_line2": "2 34009  74.0373 325.5255 0026748  33.2784  22.9399 14.33227104880358"
      },
      "geometry": {
        "type": "Point",
        "coordinates": [
          -123.71935029102683,
          -74.02254926715241
        ]
      }
    }
  ]
}